[{"OBJECT_NAME":"STARLINK-30981","OBJECT_ID":"2023-186X","EPOCH":"2026-03-09T01:30:59.940864","MEAN_MOTION":15.27574809,"ECCENTRICITY":0.00014849,"INCLINATION":43.0033,"RA_OF_ASC_NODE":66.9033,"ARG_OF_PERICENTER":266.4652,"MEAN_ANOMALY":93.603,"EPHEMERIS_TYPE":0,"CLASSIFICATION_TYPE":"U","NORAD_CAT_ID":58494,"ELEMENT_SET_NO":999,"REV_AT_EPOCH":12579,"BSTAR":2.7009633e-5,"MEAN_MOTION_DOT":4.81e-6,"MEAN_MOTION_DDOT":0},{"OBJECT_NAME":"REAL","OBJECT_ID":"2025-154G","EPOCH":"2026-03-09T17:20:09.670560","MEAN_MOTION":15.28408058,"ECCENTRICITY":0.00018528,"INCLINATION":97.4133,"RA_OF_ASC_NODE":137.2581,"ARG_OF_PERICENTER":118.5876,"MEAN_ANOMALY":241.555,"EPHEMERIS_TYPE":0,"CLASSIFICATION_TYPE":"U","NORAD_CAT_ID":64875,"ELEMENT_SET_NO":999,"REV_AT_EPOCH":3483,"BSTAR":0.0008290401,"MEAN_MOTION_DOT":0.00022901,"MEAN_MOTION_DDOT":0}]
